ONEWEB-0549             
1 56051U 23043F   25023.34976287  .00000043  00000+0  72083-4 0  9997
2 56051  87.9330 345.5745 0001974  93.8720 266.2640 13.21823781 90878
ONEWEB-0550             
1 56052U 23043G   25022.35309082  .00000185  00000+0  41526-3 0  9995
2 56052  87.9325 345.7723 0001412  78.1051 282.0241 13.21826623 90748
ONEWEB-0551             
1 56053U 23043H   25022.35423016 -.00000030  00000+0 -11459-3 0  9993
2 56053  87.9089   0.9484 0001780  93.0663 267.0671 13.15549750 89231
ONEWEB-0552             
1 56054U 23043J   25022.34679345  .00000052  00000+0  94052-4 0  9994
2 56054  87.9323 345.7828 0001549  88.1904 271.9407 13.21827087 90749
ONEWEB-0553             
1 56055U 23043K   25023.24233667  .00000047  00000+0  89513-4 0  9998
2 56055  87.9122 330.3905 0002058  74.3647 285.7711 13.16595742 91870
ONEWEB-0554             
1 56056U 23043L   25021.86172452  .00000028  00000+0  39985-4 0  9996
2 56056  87.9122 330.6913 0001188  69.9396 290.1863 13.16594350 91677
ONEWEB-0555             
1 56057U 23043M   25023.26766357  .00000037  00000+0  62887-4 0  9993
2 56057  87.9120 330.3793 0002155  62.7529 297.3821 13.16594364 91862
ONEWEB-0557             
1 56058U 23043N   25023.12992445  .00000057  00000+0  11504-3 0  9999
2 56058  87.9118 330.4311 0001946  49.9252 310.2050 13.16594511 91845
